[Satellite]
VERSION=1.1
NAME=GSAT0221 (PRN E15)
NICKNAME=GSAT0221 (PRN E15)
TLE1=1 43564U 18060A   19317.13540240 -.00000062  00000-0  00000+0 0  9995
TLE2=2 43564  56.6667  47.0062 0004883 253.4868 106.4799  1.70476390  8122
STATUS=0
